[{"OBJECT_NAME":"OBJECT AL","OBJECT_ID":"2023-085AL","EPOCH":"2026-03-09T22:26:04.970400","MEAN_MOTION":15.31857284,"ECCENTRICITY":0.000802,"INCLINATION":97.4839,"RA_OF_ASC_NODE":180.0127,"ARG_OF_PERICENTER":78.7242,"MEAN_ANOMALY":281.49,"EPHEMERIS_TYPE":0,"CLASSIFICATION_TYPE":"U","NORAD_CAT_ID":57038,"ELEMENT_SET_NO":999,"REV_AT_EPOCH":15154,"BSTAR":0.0006591637,"MEAN_MOTION_DOT":0.00020246,"MEAN_MOTION_DDOT":0},{"OBJECT_NAME":"STARLINK-32825","OBJECT_ID":"2025-018V","EPOCH":"2026-03-09T21:04:06.116448","MEAN_MOTION":15.30217584,"ECCENTRICITY":0.00012733,"INCLINATION":53.1575,"RA_OF_ASC_NODE":306.1323,"ARG_OF_PERICENTER":121.0443,"MEAN_ANOMALY":239.0683,"EPHEMERIS_TYPE":0,"CLASSIFICATION_TYPE":"U","NORAD_CAT_ID":62825,"ELEMENT_SET_NO":999,"REV_AT_EPOCH":6323,"BSTAR":0.0010203779,"MEAN_MOTION_DOT":0.0003,"MEAN_MOTION_DDOT":0}]
